NORAD_CAT_ID,OBJECT_NAME,OBJECT_TYPE,EPOCH,MEAN_MOTION,ECCENTRICITY,INCLINATION,RA_OF_ASC_NODE,ARG_OF_PERICENTER,MEAN_ANOMALY,BSTAR,MEAN_MOTION_DOT,MEAN_MOTION_DDOT,TLE_LINE0,TLE_LINE1,TLE_LINE2,SEMIMAJOR_AXIS,PERIOD,APOGEE,PERIGEE,DECAYED
51871.0,STARLINK-3567,PAYLOAD,2023-06-16 16:49:53,15.08846002,0.0001027,53.216,164.773,90.3071,269.8039,0.00011678,1.572e-05,0.0,0 STARLINK-3567,1 51871U 22022V   23167.70131633  .00001572  00000-0  11678-3 0  9994,2 51871  53.2160 164.7730 0001027  90.3071 269.8039 15.08846002 72717,6917.862,95.437,540.438,539.017,0.0
51871.0,STARLINK-3567,PAYLOAD,2023-06-16 23:11:26,15.08841515,0.0001279,53.216,163.5837,89.222,270.8918,9.9698e-05,1.299e-05,0.0,0 STARLINK-3567,1 51871U 22022V   23167.96628065  .00001299  00000-0  99698-4 0  9997,2 51871  53.2160 163.5837 0001279  89.2220 270.8918 15.08841515 72682,6917.876,95.437,540.626,538.856,0.0
51871.0,STARLINK-3567,PAYLOAD,2023-06-17 05:32:59,15.08836265,9.81e-05,53.2158,162.3949,94.6735,265.4369,5.1664e-05,5.35e-06,0.0,0 STARLINK-3567,1 51871U 22022V   23168.23124440  .00000535  00000-0  51664-4 0  9999,2 51871  53.2158 162.3949 0000981  94.6735 265.4369 15.08836265 72721,6917.892,95.438,540.435,539.078,0.0
51871.0,STARLINK-3567,PAYLOAD,2023-06-17 07:08:22,15.08836276,9.88e-05,53.2158,162.0976,94.9509,265.1595,4.7963e-05,4.76e-06,0.0,0 STARLINK-3567,1 51871U 22022V   23168.29748436  .00000476  00000-0  47963-4 0  9993,2 51871  53.2158 162.0976 0000988  94.9509 265.1595 15.08836276 72806,6917.892,95.438,540.44,539.073,0.0
51871.0,STARLINK-3567,PAYLOAD,2023-06-17 16:40:41,15.08832829,0.0001254,53.2174,160.313,89.5435,270.57,-2.8436e-06,-3.33e-06,0.0,0 STARLINK-3567,1 51871U 22022V   23168.69492950 -.00000333  00000-0 -28436-5 0  9993,2 51871  53.2174 160.3130 0001254  89.5435 270.5700 15.08832829 72866,6917.902,95.438,540.635,538.9,0.0
51871.0,STARLINK-3567,PAYLOAD,2023-06-18 05:23:46,15.08837617,0.0001077,53.2162,157.9333,89.9804,270.1312,-7.4429e-05,-1.472e-05,0.0,0 STARLINK-3567,1 51871U 22022V   23169.22484875 -.00001472  00000-0 -74429-4 0  9997,2 51871  53.2162 157.9333 0001077  89.9804 270.1312 15.08837617 72941,6917.888,95.438,540.498,539.008,0.0
51871.0,STARLINK-3567,PAYLOAD,2023-06-18 06:59:10,15.08840319,0.0001053,53.2158,157.6385,92.8293,267.282,-0.00013254,-2.397e-05,0.0,0 STARLINK-3567,1 51871U 22022V   23169.29108895 -.00002397  00000-0 -13254-3 0  9994,2 51871  53.2158 157.6385 0001053  92.8293 267.2820 15.08840319 72886,6917.879,95.438,540.473,539.016,0.0
51871.0,STARLINK-3567,PAYLOAD,2023-06-19 08:25:20,15.08837479,0.0001028,53.216,152.8785,95.1294,264.9815,7.7185e-05,9.41e-06,0.0,0 STARLINK-3567,1 51871U 22022V   23170.35092601  .00000941  00000-0  77185-4 0  9995,2 51871  53.2160 152.8785 0001028  95.1294 264.9815 15.08837479 73049,6917.888,95.438,540.464,539.042,0.0
51871.0,STARLINK-3567,PAYLOAD,2023-06-19 16:22:16,15.08833821,0.0001026,53.2159,151.3912,96.1712,263.9397,6.7396e-05,7.85e-06,0.0,0 STARLINK-3567,1 51871U 22022V   23170.68212971  .00000785  00000-0  67396-4 0  9994,2 51871  53.2159 151.3912 0001026  96.1712 263.9397 15.08833821 73161,6917.899,95.438,540.474,539.054,0.0
51871.0,STARLINK-3567,PAYLOAD,2023-06-20 05:05:21,15.08834497,0.0001028,53.2158,149.0123,96.3822,263.7287,0.00010462,1.377e-05,0.0,0 STARLINK-3567,1 51871U 22022V   23171.21205055  .00001377  00000-0  10462-3 0  9998,2 51871  53.2158 149.0123 0001028  96.3822 263.7287 15.08834497 73249,6917.897,95.438,540.473,539.051,0.0
51871.0,STARLINK-3567,PAYLOAD,2023-06-21 08:06:53,15.08845648,0.0001092,53.2155,143.9568,96.8174,263.2943,7.8793e-05,9.67e-06,0.0,0 STARLINK-3567,1 51871U 22022V   23172.33812468  .00000967  00000-0  78793-4 0  9990,2 51871  53.2155 143.9568 0001092  96.8174 263.2943 15.08845648 73343,6917.863,95.437,540.484,538.973,0.0
51871.0,STARLINK-3567,PAYLOAD,2023-06-22 03:11:32,15.0883513,0.0001145,53.2154,140.3871,99.7558,260.3563,4.6851e-06,-2.13e-06,0.0,0 STARLINK-3567,1 51871U 22022V   23173.13301420 -.00000213  00000-0  46851-5 0  9996,2 51871  53.2154 140.3871 0001145  99.7558 260.3563 15.08835130 73461,6917.895,95.438,540.552,538.968,0.0
51871.0,STARLINK-3567,PAYLOAD,2023-06-23 06:13:05,15.08839686,0.0001146,53.2162,135.3353,94.4176,265.6947,3.6076e-06,-2.3e-06,0.0,0 STARLINK-3567,1 51871U 22022V   23174.25909467 -.00000230  00000-0  36076-5 0  9992,2 51871  53.2162 135.3353 0001146  94.4176 265.6947 15.08839686 73631,6917.881,95.438,540.539,538.954,0.0
51871.0,STARLINK-3567,PAYLOAD,2023-06-24 14:00:48,15.08841743,0.0001182,53.2164,129.3883,100.2569,259.8556,6.1253e-05,6.87e-06,0.0,0 STARLINK-3567,1 51871U 22022V   23175.58389487  .00000687  00000-0  61253-4 0  9992,2 51871  53.2164 129.3883 0001182 100.2569 259.8556 15.08841743 73836,6917.875,95.437,540.558,538.922,0.0
51871.0,STARLINK-3567,PAYLOAD,2023-06-26 02:34:40,15.08843046,0.0001248,53.2162,122.5477,91.5221,268.5914,0.0001057,1.395e-05,0.0,0 STARLINK-3567,1 51871U 22022V   23177.10741458  .00001395  00000-0  10570-3 0  9994,2 51871  53.2162 122.5477 0001248  91.5221 268.5914 15.08843046 74067,6917.871,95.437,540.599,538.873,0.0
51871.0,STARLINK-3567,PAYLOAD,2023-06-26 15:17:46,15.08838113,0.0001175,53.2163,120.1664,107.4973,252.6147,-4.3895e-05,-9.86e-06,0.0,0 STARLINK-3567,1 51871U 22022V   23177.63734027 -.00000986  00000-0 -43895-4 0  9990,2 51871  53.2163 120.1664 0001175 107.4973 252.6147 15.08838113 74140,6917.886,95.438,540.564,538.938,0.0
51871.0,STARLINK-3567,PAYLOAD,2023-06-28 02:16:14,15.08846853,0.0001229,53.2167,113.6272,92.6616,267.4516,0.00013069,1.793e-05,0.0,0 STARLINK-3567,1 51871U 22022V   23179.09461511  .00001793  00000-0  13069-3 0  9991,2 51871  53.2167 113.6272 0001229  92.6616 267.4516 15.08846853 74363,6917.859,95.437,540.575,538.874,0.0
51871.0,STARLINK-3567,PAYLOAD,2023-06-29 00:31:39,15.08831848,0.000117,53.217,109.4641,87.6718,272.4408,0.00015152,2.124e-05,0.0,0 STARLINK-3567,1 51871U 22022V   23180.02198589  .00002124  00000-0  15152-3 0  9992,2 51871  53.2170 109.4641 0001170  87.6718 272.4408 15.08831848 74502,6917.905,95.438,540.58,538.961,0.0
51871.0,STARLINK-3567,PAYLOAD,2023-06-30 11:30:08,15.08838814,0.0001155,53.2173,102.9217,88.5098,271.6026,3.5293e-05,2.74e-06,0.0,0 STARLINK-3567,1 51871U 22022V   23181.47926306  .00000274  00000-0  35293-4 0  9991,2 51871  53.2173 102.9217 0001155  88.5098 271.6026 15.08838814 74727,6917.884,95.438,540.548,538.95,0.0
51871.0,STARLINK-3567,PAYLOAD,2023-07-01 01:48:37,15.08832181,0.0001183,53.2165,100.2475,97.8416,262.2711,-1.5646e-05,-5.37e-06,0.0,0 STARLINK-3567,1 51871U 22022V   23182.07543086 -.00000537  00000-0 -15646-4 0  9992,2 51871  53.2165 100.2475 0001183  97.8416 262.2711 15.08832181 74811,6917.904,95.438,540.588,538.951,0.0
51871.0,STARLINK-3567,PAYLOAD,2023-07-02 01:39:23,15.08842815,0.0001133,53.217,95.7867,89.5685,270.5437,0.00010267,1.347e-05,0.0,0 STARLINK-3567,1 51871U 22022V   23183.06902436  .00001347  00000-0  10267-3 0  9991,2 51871  53.2170  95.7867 0001133  89.5685 270.5437 15.08842815 74969,6917.872,95.437,540.521,538.953,0.0
51871.0,STARLINK-3567,PAYLOAD,2023-07-02 12:47:06,15.0883022,0.0001206,53.217,93.7052,89.6602,270.4528,0.00018347,2.633e-05,0.0,0 STARLINK-3567,1 51871U 22022V   23183.53271191  .00002633  00000-0  18347-3 0  9996,2 51871  53.2170  93.7052 0001206  89.6602 270.4528 15.08830220 75030,6917.91,95.438,540.61,538.941,0.0
51871.0,STARLINK-3567,PAYLOAD,2023-07-03 01:30:11,15.08840772,0.0001172,53.2171,91.3256,85.8906,274.222,0.00016035,2.265e-05,0.0,0 STARLINK-3567,1 51871U 22022V   23184.06262732  .00002265  00000-0  16035-3 0  9999,2 51871  53.2171  91.3256 0001172  85.8906 274.2220 15.08840772 75111,6917.878,95.438,540.554,538.932,0.0
51871.0,STARLINK-3567,PAYLOAD,2023-07-03 11:02:30,15.08838004,0.0001265,53.2175,89.5413,78.8514,281.262,9.7105e-05,1.258e-05,0.0,0 STARLINK-3567,1 51871U 22022V   23184.46007180  .00001258  00000-0  97105-4 0  9996,2 51871  53.2175  89.5413 0001265  78.8514 281.2620 15.08838004 75172,6917.886,95.438,540.627,538.876,0.0
51871.0,STARLINK-3567,PAYLOAD,2023-07-04 23:36:21,15.08850033,0.0001219,53.2173,82.6994,106.6119,253.5008,0.00013428,1.85e-05,0.0,0 STARLINK-3567,1 51871U 22022V   23185.98358126  .00001850  00000-0  13428-3 0  9996,2 51871  53.2173  82.6994 0001219 106.6119 253.5008 15.08850033 75402,6917.85,95.437,540.558,538.871,0.0
51871.0,STARLINK-3567,PAYLOAD,2023-07-06 02:37:55,15.08841223,0.0001301,53.2177,77.6459,96.0001,264.1139,5.8357e-05,6.41e-06,0.0,0 STARLINK-3567,1 51871U 22022V   23187.10966901  .00000641  00000-0  58357-4 0  9996,2 51871  53.2177  77.6459 0001301  96.0001 264.1139 15.08841223 75572,6917.877,95.437,540.642,538.842,0.0
51871.0,STARLINK-3567,PAYLOAD,2023-07-08 02:19:29,15.08844019,0.0001152,53.2175,68.7251,90.8178,269.2946,0.00013177,1.81e-05,0.0,0 STARLINK-3567,1 51871U 22022V   23189.09686780  .00001810  00000-0  13177-3 0  9999,2 51871  53.2175  68.7251 0001152  90.8178 269.2946 15.08844019 75873,6917.868,95.437,540.53,538.936,0.0
51871.0,STARLINK-3567,PAYLOAD,2023-07-08 19:48:44,15.08832854,0.0001105,53.2181,65.4549,88.5004,271.6115,-9.3263e-06,-4.36e-06,0.0,0 STARLINK-3567,1 51871U 22022V   23189.82552004 -.00000436  00000-0 -93263-5 0  9992,2 51871  53.2181  65.4549 0001105  88.5004 271.6115 15.08832854 75985,6917.902,95.438,540.532,539.003,0.0
51871.0,STARLINK-3567,PAYLOAD,2023-07-09 02:10:17,15.08838895,0.0001176,53.2181,64.2657,86.824,273.2887,3.6075e-05,2.86e-06,0.0,0 STARLINK-3567,1 51871U 22022V   23190.09047577  .00000286  00000-0  36075-4 0  9995,2 51871  53.2181  64.2657 0001176  86.8240 273.2887 15.08838895 76024,6917.884,95.438,540.562,538.935,0.0
51871.0,STARLINK-3567,PAYLOAD,2023-07-10 08:22:36,15.08844857,0.0001133,53.2178,58.615,86.6297,273.4824,5.6459e-05,6.11e-06,0.0,0 STARLINK-3567,1 51871U 22022V   23191.34903388  .00000611  00000-0  56459-4 0  9995,2 51871  53.2178  58.6150 0001133  86.6297 273.4824 15.08844857 76217,6917.866,95.437,540.514,538.947,0.0
